LEMUR-2-STARLIGHT       
1 66783U 25276DY  26193.66644495  .00003675  00000+0  30466-3 0  9999
2 66783  97.5235 263.4338 0014810  54.7591 305.5017 14.99335039 34012
LEMUR-2-TARTIFLETTE     
1 66784U 25276DZ  26193.73155905  .00003516  00000+0  29192-3 0  9999
2 66784  97.5235 263.5049 0013872  62.7426 297.5209 14.99322354 34026
LEMUR-2-VUKASIN         
1 66785U 25276EA  26194.17069174  .00002777  00000+0  22476-3 0  9997
2 66785  97.5238 264.2842 0003404  60.3374 299.8189 15.00535741 34048
LEMUR-2-HOTSPUR-TOM     
1 66786U 25276EB  26193.79254356  .00003477  00000+0  28941-3 0  9994
2 66786  97.5223 263.5388 0013783  53.6491 306.6002 14.99227481 33963
LEMUR-2-MYRA            
1 66787U 25276EC  26193.73586926  .00003624  00000+0  29064-3 0  9991
2 66787  97.5226 263.7829 0018605  61.6382 298.6715 15.00572080 34047
LEMUR-2 FIKRETDENGIZ    
1 67363U 26004A   26193.94941412  .00002520  00000+0  27684-3 0  9990
2 67363  97.8023 192.1152 0010306  62.1023 298.1237 14.88507915 27112
TWILIGHT-1 OBJECT B     
1 67364U 26004B   26194.45625642  .00000966  00000+0  11174-3 0  9991
2 67364  97.8074 192.6163 0009859  50.9496 309.2596 14.87790202 27198
LEMUR-2-MARIO-SOUSA     
1 67365U 26004C   26193.99680482  .00002679  00000+0  29239-3 0  9997
2 67365  97.7995 192.1569 0009940  63.2656 296.9577 14.88716641 27132
LEMUR-2-SONNENBLUME     
1 67367U 26004E   26194.46983539  .00001729  00000+0  19214-3 0  9998
2 67367  97.7992 192.5964 0009494  63.2599 296.9589 14.88448171 27205
LEMUR-2-WOBLER          
1 67368U 26004F   26194.45940492  .00002040  00000+0  22421-3 0  9990
2 67368  97.8046 192.7353 0009578  55.0597 305.1518 14.88690103 27200
LEMUR-2-GRAM-E-SUE      
1 67370U 26004H   26194.45141125  .00001295  00000+0  14492-3 0  9999
2 67370  97.7986 192.5948 0008698  65.6366 294.5758 14.88584814 27204
LEMUR-2-KATIE           
1 67387U 26004AA  26193.94030332  .00003162  00000+0  33168-3 0  9993
2 67387  97.8041 192.6354 0003671  39.3280 320.8204 14.90239334 27145
LEMUR-2-HCS-BAZUS       
1 67388U 26004AB  26194.47582963  .00001618  00000+0  17245-3 0  9997
2 67388  97.8039 193.1431 0003159  36.6639 323.4794 14.90255986 27227
